{
  "type": "FeatureCollection",
  "features": [
    {
      "type": "Feature",
      "properties": {
        "norad_id": 43823,
        "name": "GEO-KOMPSAT-2A",
        "group": "weather",
        "lat": 0.02344329935302493,
        "lon": 122.46044161791244,
        "alt_km": 35784.28691557308,
        "timestamp": "2025-12-17T17:50:18.895293+00:00",
        "meta_object_name": "GEO-KOMPSAT-2A",
        "meta_object_id": "2018-100A",
        "meta_epoch": "2025-12-16T07:07:06.206304",
        "meta_mean_motion": 1.00271835,
        "meta_eccentricity": 4.993e-05,
        "meta_inclination": 0.0508,
        "meta_ra_of_asc_node": 132.3973,
        "meta_arg_of_pericenter": 330.4458,
        "meta_mean_anomaly": 217.3998,
        "meta_ephemeris_type": 0,
        "meta_classification_type": "U",
        "meta_norad_cat_id": 43823,
        "meta_element_set_no": 999,
        "meta_rev_at_epoch": 2579,
        "meta_bstar": 0,
        "meta_mean_motion_dot": -3.2e-06,
        "meta_mean_motion_ddot": 0,
        "tle_line1": "1 43823U 18100A   25350.29659961 -.00000320  00000+0  00000+0 0  9996",
        "tle_line2": "2 43823   0.0508 132.3973 0000499 330.4458 217.3998  1.00271835 25791"
      },
      "geometry": {
        "type": "Point",
        "coordinates": [
          122.46044161791244,
          0.02344329935302493
        ]
      }
    },
    {
      "type": "Feature",
      "properties": {
        "norad_id": 44387,
        "name": "METEOR-M2 2",
        "group": "weather",
        "lat": 79.29972462303171,
        "lon": -152.47311009430223,
        "alt_km": 802.6909498584555,
        "timestamp": "2025-12-17T17:50:18.895304+00:00",
        "meta_object_name": "METEOR-M2 2",
        "meta_object_id": "2019-038A",
        "meta_epoch": "2025-12-17T07:16:25.696416",
        "meta_mean_motion": 14.24293306,
        "meta_eccentricity": 0.00014505,
        "meta_inclination": 98.8969,
        "meta_ra_of_asc_node": 331.0878,
        "meta_arg_of_pericenter": 138.0902,
        "meta_mean_anomaly": 222.0387,
        "meta_ephemeris_type": 0,
        "meta_classification_type": "U",
        "meta_norad_cat_id": 44387,
        "meta_element_set_no": 999,
        "meta_rev_at_epoch": 33540,
        "meta_bstar": 3.7568236e-05,
        "meta_mean_motion_dot": 4.1e-07,
        "meta_mean_motion_ddot": 0,
        "tle_line1": "1 44387U 19038A   25351.30307519  .00000041  00000+0  37568-4 0  9998",
        "tle_line2": "2 44387  98.8969 331.0878 0001450 138.0902 222.0387 14.24293306335403"
      },
      "geometry": {
        "type": "Point",
        "coordinates": [
          -152.47311009430223,
          79.29972462303171
        ]
      }
    },
    {
      "type": "Feature",
      "properties": {
        "norad_id": 47719,
        "name": "ARKTIKA-M 1",
        "group": "weather",
        "lat": 61.947846393656526,
        "lon": 154.8445776556297,
        "alt_km": 38252.50990302661,
        "timestamp": "2025-12-17T17:50:18.895318+00:00",
        "meta_object_name": "ARKTIKA-M 1",
        "meta_object_id": "2021-016A",
        "meta_epoch": "2025-12-16T01:33:46.454400",
        "meta_mean_motion": 2.00630649,
        "meta_eccentricity": 0.72056757,
        "meta_inclination": 63.179,
        "meta_ra_of_asc_node": 83.5626,
        "meta_arg_of_pericenter": 269.1378,
        "meta_mean_anomaly": 15.5886,
        "meta_ephemeris_type": 0,
        "meta_classification_type": "U",
        "meta_norad_cat_id": 47719,
        "meta_element_set_no": 999,
        "meta_rev_at_epoch": 3511,
        "meta_bstar": 0,
        "meta_mean_motion_dot": -1.08e-06,
        "meta_mean_motion_ddot": 0,
        "tle_line1": "1 47719U 21016A   25350.06512100 -.00000108  00000+0  00000+0 0  9996",
        "tle_line2": "2 47719  63.1790  83.5626 7205675 269.1378  15.5886  2.00630649 35117"
      },
      "geometry": {
        "type": "Point",
        "coordinates": [
          154.8445776556297,
          61.947846393656526
        ]
      }
    },
    {
      "type": "Feature",
      "properties": {
        "norad_id": 49008,
        "name": "FENGYUN 3E",
        "group": "weather",
        "lat": -23.994773232103157,
        "lon": -3.8648340724251136,
        "alt_km": 831.3240466655843,
        "timestamp": "2025-12-17T17:50:18.895331+00:00",
        "meta_object_name": "FENGYUN 3E",
        "meta_object_id": "2021-062A",
        "meta_epoch": "2025-12-17T07:48:19.250784",
        "meta_mean_motion": 14.19880902,
        "meta_eccentricity": 6.404e-05,
        "meta_inclination": 98.7475,
        "meta_ra_of_asc_node": 351.7923,
        "meta_arg_of_pericenter": 232.2891,
        "meta_mean_anomaly": 127.8227,
        "meta_ephemeris_type": 0,
        "meta_classification_type": "U",
        "meta_norad_cat_id": 49008,
        "meta_element_set_no": 999,
        "meta_rev_at_epoch": 23077,
        "meta_bstar": 1.8157614e-05,
        "meta_mean_motion_dot": -5e-08,
        "meta_mean_motion_ddot": 0,
        "tle_line1": "1 49008U 21062A   25351.32522281 -.00000005  00000+0  18158-4 0  9995",
        "tle_line2": "2 49008  98.7475 351.7923 0000640 232.2891 127.8227 14.19880902230770"
      },
      "geometry": {
        "type": "Point",
        "coordinates": [
          -3.8648340724251136,
          -23.994773232103157
        ]
      }
    },
    {
      "type": "Feature",
      "properties": {
        "norad_id": 51850,
        "name": "GOES 18",
        "group": "weather",
        "lat": -0.004089016876145768,
        "lon": -142.8208352056575,
        "alt_km": 35786.51962127287,
        "timestamp": "2025-12-17T17:50:18.895354+00:00",
        "meta_object_name": "GOES 18",
        "meta_object_id": "2022-021A",
        "meta_epoch": "2025-12-16T08:28:42.807936",
        "meta_mean_motion": 1.00271857,
        "meta_eccentricity": 4.701e-05,
        "meta_inclination": 0.0125,
        "meta_ra_of_asc_node": 94.3935,
        "meta_arg_of_pericenter": 230.6521,
        "meta_mean_anomaly": 110.3782,
        "meta_ephemeris_type": 0,
        "meta_classification_type": "U",
        "meta_norad_cat_id": 51850,
        "meta_element_set_no": 999,
        "meta_rev_at_epoch": 475,
        "meta_bstar": 0,
        "meta_mean_motion_dot": 1.2e-06,
        "meta_mean_motion_ddot": 0,
        "tle_line1": "1 51850U 22021A   25350.35327324  .00000120  00000+0  00000+0 0  9991",
        "tle_line2": "2 51850   0.0125  94.3935 0000470 230.6521 110.3782  1.00271857  4751"
      },
      "geometry": {
        "type": "Point",
        "coordinates": [
          -142.8208352056575,
          -0.004089016876145768
        ]
      }
    },
    {
      "type": "Feature",
      "properties": {
        "norad_id": 54234,
        "name": "NOAA 21 (JPSS-2)",
        "group": "weather",
        "lat": -24.0073754906171,
        "lon": -68.0791462166569,
        "alt_km": 831.5124107583624,
        "timestamp": "2025-12-17T17:50:18.895371+00:00",
        "meta_object_name": "NOAA 21 (JPSS-2)",
        "meta_object_id": "2022-150A",
        "meta_epoch": "2025-12-17T07:48:10.291104",
        "meta_mean_motion": 14.1952558,
        "meta_eccentricity": 0.00020284,
        "meta_inclination": 98.7467,
        "meta_ra_of_asc_node": 287.5762,
        "meta_arg_of_pericenter": 29.154,
        "meta_mean_anomaly": 330.9749,
        "meta_ephemeris_type": 0,
        "meta_classification_type": "U",
        "meta_norad_cat_id": 54234,
        "meta_element_set_no": 999,
        "meta_rev_at_epoch": 16074,
        "meta_bstar": 4.6371737e-05,
        "meta_mean_motion_dot": 5.4e-07,
        "meta_mean_motion_ddot": 0,
        "tle_line1": "1 54234U 22150A   25351.32511911  .00000054  00000+0  46372-4 0  9991",
        "tle_line2": "2 54234  98.7467 287.5762 0002028  29.1540 330.9749 14.19525580160744"
      },
      "geometry": {
        "type": "Point",
        "coordinates": [
          -68.0791462166569,
          -24.0073754906171
        ]
      }
    },
    {
      "type": "Feature",
      "properties": {
        "norad_id": 54743,
        "name": "METEOSAT-12 (MTG-I1)",
        "group": "weather",
        "lat": -0.3460047609089563,
        "lon": -6.091634385050406,
        "alt_km": 35786.612399347876,
        "timestamp": "2025-12-17T17:50:18.895384+00:00",
        "meta_object_name": "METEOSAT-12 (MTG-I1)",
        "meta_object_id": "2022-170C",
        "meta_epoch": "2025-12-17T04:45:49.288896",
        "meta_mean_motion": 1.002701,
        "meta_eccentricity": 0.00015142,
        "meta_inclination": 0.6914,
        "meta_ra_of_asc_node": 24.3422,
        "meta_arg_of_pericenter": 239.2541,
        "meta_mean_anomaly": 253.6472,
        "meta_ephemeris_type": 0,
        "meta_classification_type": "U",
        "meta_norad_cat_id": 54743,
        "meta_element_set_no": 999,
        "meta_rev_at_epoch": 1115,
        "meta_bstar": 0,
        "meta_mean_motion_dot": 1.7e-07,
        "meta_mean_motion_ddot": 0,
        "tle_line1": "1 54743U 22170C   25351.19848714  .00000017  00000+0  00000+0 0  9999",
        "tle_line2": "2 54743   0.6914  24.3422 0001514 239.2541 253.6472  1.00270100 11157"
      },
      "geometry": {
        "type": "Point",
        "coordinates": [
          -6.091634385050406,
          -0.3460047609089563
        ]
      }
    }
  ]
}